*******************************************************************************
Ephemeris / WWW_USER Mon Jul 15 19:03:17 2024 Pasadena, USA      / Horizons    
*******************************************************************************
Target body name: (2018 RC)                       {source: JPL#21}
Center body name: Earth (399)                     {source: DE441}
Center-site name: Gemini South Obs., Cerro Pachon
*******************************************************************************
Start time      : A.D. 2018-Nov-06 23:18:00.0000 UT      
Stop  time      : A.D. 2018-Nov-07 09:34:00.0000 UT      
Step-size       : 1 minutes
*******************************************************************************
Target pole/equ : undefined
Target radii    : undefined                                                    
Center geodetic : 289.2634, -30.2406227, 2.71233  {E-lon(deg),Lat(deg),Alt(km)}
Center cylindric: 289.2634,5517.21435,-3194.81213 {E-lon(deg),Dxy(km),Dz(km)}
Center pole/equ : ITRF93                          {East-longitude positive}
Center radii    : 6378.137, 6378.137, 6356.752 km {Equator_a, b, pole_c}       
Target primary  : Sun
Vis. interferer : MOON (R_eq= 1737.400) km        {source: DE441}
Rel. light bend : Sun                             {source: DE441}
Rel. lght bnd GM: 1.3271E+11 km^3/s^2                                          
Small-body perts: Yes                             {source: SB441-N16}
Atmos refraction: NO (AIRLESS)
RA format       : HMS
Time format     : CAL 
Calendar mode   : Mixed Julian/Gregorian
RTS-only print  : NO       
EOP file        : eop.240715.p241008                                           
EOP coverage    : DATA-BASED 1962-JAN-20 TO 2024-JUL-15. PREDICTS-> 2024-OCT-07
Units conversion: 1 au= 149597870.700 km, c= 299792.458 km/s, 1 day= 86400.0 s 
Table cut-offs 1: Elevation (-90.0deg=NO ),Airmass (>38.000=NO), Daylight (YES)
Table cut-offs 2: Solar elongation (  0.0,180.0=NO ),Local Hour Angle( 0.0=NO )
Table cut-offs 3: RA/DEC angular rate (     0.0=NO )                           
*******************************************************************************
Initial IAU76/J2000 heliocentric ecliptic osculating elements (au, days, deg.):
  EPOCH=  2458369.5 ! 2018-Sep-08.00 (TDB)         Residual RMS= .84866        
   EC= .2426621660028976   QR= .647471518312811    TP= 2458473.8617576878      
   OM= 346.8893436915528   W=  145.8737085184167   IN= 1.612045057594462       
  Equivalent ICRF heliocentric cartesian coordinates (au, au/d):
   X= 9.781363708094483E-01  Y=-2.377942828764822E-01  Z=-1.040448782093900E-01
  VX= 1.501011538102481E-03 VY= 1.393070215815854E-02 VZ= 6.509326736836346E-03
Asteroid physical parameters (km, seconds, rotational period in hours):        
   GM= n.a.                RAD= n.a.               ROTPER= .16548              
   H= 24.93                G= .150                 B-V= n.a.                   
                           ALBEDO= n.a.            STYP= n.a.                  
*******************************************************************************
 Date__(UT)__HR:MN     R.A._________(ICRF)_________DEC
******************************************************
$$SOE
 2018-Nov-07 05:27     13 13 14.381003 -02 01 40.43885
 2018-Nov-07 05:28     13 13 14.425053 -02 01 40.97225
 2018-Nov-07 05:29     13 13 14.469078 -02 01 41.50568
 2018-Nov-07 05:30     13 13 14.513079 -02 01 42.03913
 2018-Nov-07 05:31     13 13 14.557055 -02 01 42.57262
 2018-Nov-07 05:32     13 13 14.601006 -02 01 43.10613
 2018-Nov-07 05:33     13 13 14.644932 -02 01 43.63967
 2018-Nov-07 05:34     13 13 14.688833 -02 01 44.17323
 2018-Nov-07 05:35     13 13 14.732708 -02 01 44.70683
 2018-Nov-07 05:36     13 13 14.776558 -02 01 45.24045
 2018-Nov-07 05:37     13 13 14.820383 -02 01 45.77410
 2018-Nov-07 05:38     13 13 14.864181 -02 01 46.30778
 2018-Nov-07 05:39     13 13 14.907954 -02 01 46.84149
 2018-Nov-07 05:40     13 13 14.951701 -02 01 47.37522
 2018-Nov-07 05:41     13 13 14.995421 -02 01 47.90898
 2018-Nov-07 05:42     13 13 15.039116 -02 01 48.44277
 2018-Nov-07 05:43     13 13 15.082784 -02 01 48.97659
 2018-Nov-07 05:44     13 13 15.126425 -02 01 49.51043
 2018-Nov-07 05:45     13 13 15.170040 -02 01 50.04430
 2018-Nov-07 05:46     13 13 15.213628 -02 01 50.57820
 2018-Nov-07 05:47     13 13 15.257189 -02 01 51.11212
 2018-Nov-07 05:48     13 13 15.300722 -02 01 51.64607
 2018-Nov-07 05:49     13 13 15.344229 -02 01 52.18005
 2018-Nov-07 05:50     13 13 15.387709 -02 01 52.71406
 2018-Nov-07 05:51     13 13 15.431161 -02 01 53.24809
 2018-Nov-07 05:52     13 13 15.474585 -02 01 53.78215
 2018-Nov-07 05:53     13 13 15.517982 -02 01 54.31623
 2018-Nov-07 05:54     13 13 15.561351 -02 01 54.85034
 2018-Nov-07 05:55     13 13 15.604692 -02 01 55.38448
 2018-Nov-07 05:56     13 13 15.648005 -02 01 55.91864
 2018-Nov-07 05:57     13 13 15.691289 -02 01 56.45284
 2018-Nov-07 05:58     13 13 15.734546 -02 01 56.98705
 2018-Nov-07 05:59     13 13 15.777774 -02 01 57.52130
 2018-Nov-07 06:00     13 13 15.820973 -02 01 58.05557
 2018-Nov-07 06:01     13 13 15.864144 -02 01 58.58986
 2018-Nov-07 06:02     13 13 15.907286 -02 01 59.12418
 2018-Nov-07 06:03     13 13 15.950399 -02 01 59.65853
 2018-Nov-07 06:04     13 13 15.993483 -02 02 00.19290
 2018-Nov-07 06:05     13 13 16.036538 -02 02 00.72730
 2018-Nov-07 06:06     13 13 16.079563 -02 02 01.26173
 2018-Nov-07 06:07     13 13 16.122559 -02 02 01.79618
 2018-Nov-07 06:08     13 13 16.165526 -02 02 02.33065
 2018-Nov-07 06:09     13 13 16.208463 -02 02 02.86515
 2018-Nov-07 06:10     13 13 16.251370 -02 02 03.39968
 2018-Nov-07 06:11     13 13 16.294248 -02 02 03.93423
 2018-Nov-07 06:12     13 13 16.337095 -02 02 04.46881
 2018-Nov-07 06:13     13 13 16.379912 -02 02 05.00341
 2018-Nov-07 06:14     13 13 16.422699 -02 02 05.53804
 2018-Nov-07 06:15     13 13 16.465456 -02 02 06.07269
 2018-Nov-07 06:16     13 13 16.508183 -02 02 06.60737
 2018-Nov-07 06:17     13 13 16.550879 -02 02 07.14207
 2018-Nov-07 06:18     13 13 16.593544 -02 02 07.67680
 2018-Nov-07 06:19     13 13 16.636178 -02 02 08.21155
 2018-Nov-07 06:20     13 13 16.678782 -02 02 08.74633
 2018-Nov-07 06:21     13 13 16.721354 -02 02 09.28113
 2018-Nov-07 06:22     13 13 16.763896 -02 02 09.81595
 2018-Nov-07 06:23     13 13 16.806406 -02 02 10.35080
 2018-Nov-07 06:24     13 13 16.848885 -02 02 10.88568
 2018-Nov-07 06:25     13 13 16.891333 -02 02 11.42058
 2018-Nov-07 06:26     13 13 16.933749 -02 02 11.95550
 2018-Nov-07 06:27     13 13 16.976133 -02 02 12.49045
 2018-Nov-07 06:28     13 13 17.018486 -02 02 13.02542
 2018-Nov-07 06:29     13 13 17.060807 -02 02 13.56041
 2018-Nov-07 06:30     13 13 17.103096 -02 02 14.09543
 2018-Nov-07 06:31     13 13 17.145353 -02 02 14.63047
 2018-Nov-07 06:32     13 13 17.187578 -02 02 15.16554
 2018-Nov-07 06:33     13 13 17.229770 -02 02 15.70063
 2018-Nov-07 06:34     13 13 17.271931 -02 02 16.23574
 2018-Nov-07 06:35     13 13 17.314058 -02 02 16.77088
 2018-Nov-07 06:36     13 13 17.356154 -02 02 17.30604
 2018-Nov-07 06:37     13 13 17.398216 -02 02 17.84122
 2018-Nov-07 06:38     13 13 17.440246 -02 02 18.37643
 2018-Nov-07 06:39     13 13 17.482243 -02 02 18.91165
 2018-Nov-07 06:40     13 13 17.524207 -02 02 19.44691
 2018-Nov-07 06:41     13 13 17.566138 -02 02 19.98218
 2018-Nov-07 06:42     13 13 17.608036 -02 02 20.51748
 2018-Nov-07 06:43     13 13 17.649901 -02 02 21.05280
 2018-Nov-07 06:44     13 13 17.691733 -02 02 21.58814
 2018-Nov-07 06:45     13 13 17.733531 -02 02 22.12351
 2018-Nov-07 06:46     13 13 17.775295 -02 02 22.65890
 2018-Nov-07 06:47     13 13 17.817026 -02 02 23.19431
 2018-Nov-07 06:48     13 13 17.858723 -02 02 23.72974
 2018-Nov-07 06:49     13 13 17.900387 -02 02 24.26520
 2018-Nov-07 06:50     13 13 17.942016 -02 02 24.80068
 2018-Nov-07 06:51     13 13 17.983612 -02 02 25.33618
 2018-Nov-07 06:52     13 13 18.025174 -02 02 25.87170
 2018-Nov-07 06:53     13 13 18.066701 -02 02 26.40724
 2018-Nov-07 06:54     13 13 18.108194 -02 02 26.94281
 2018-Nov-07 06:55     13 13 18.149653 -02 02 27.47840
 2018-Nov-07 06:56     13 13 18.191078 -02 02 28.01400
 2018-Nov-07 06:57     13 13 18.232468 -02 02 28.54964
 2018-Nov-07 06:58     13 13 18.273824 -02 02 29.08529
 2018-Nov-07 06:59     13 13 18.315144 -02 02 29.62096
 2018-Nov-07 07:00     13 13 18.356431 -02 02 30.15666
 2018-Nov-07 07:01     13 13 18.397682 -02 02 30.69237
 2018-Nov-07 07:02     13 13 18.438898 -02 02 31.22811
 2018-Nov-07 07:03     13 13 18.480080 -02 02 31.76387
 2018-Nov-07 07:04     13 13 18.521226 -02 02 32.29965
 2018-Nov-07 07:05     13 13 18.562338 -02 02 32.83544
 2018-Nov-07 07:06     13 13 18.603414 -02 02 33.37127
 2018-Nov-07 07:07     13 13 18.644455 -02 02 33.90711
 2018-Nov-07 07:08     13 13 18.685460 -02 02 34.44297
 2018-Nov-07 07:09     13 13 18.726430 -02 02 34.97885
 2018-Nov-07 07:10     13 13 18.767364 -02 02 35.51475
 2018-Nov-07 07:11     13 13 18.808263 -02 02 36.05068
 2018-Nov-07 07:12     13 13 18.849126 -02 02 36.58662
 2018-Nov-07 07:13     13 13 18.889954 -02 02 37.12258
 2018-Nov-07 07:14     13 13 18.930746 -02 02 37.65857
 2018-Nov-07 07:15     13 13 18.971501 -02 02 38.19457
 2018-Nov-07 07:16     13 13 19.012221 -02 02 38.73059
 2018-Nov-07 07:17     13 13 19.052905 -02 02 39.26664
 2018-Nov-07 07:18     13 13 19.093553 -02 02 39.80270
 2018-Nov-07 07:19     13 13 19.134164 -02 02 40.33878
 2018-Nov-07 07:20     13 13 19.174739 -02 02 40.87488
 2018-Nov-07 07:21     13 13 19.215278 -02 02 41.41101
 2018-Nov-07 07:22     13 13 19.255781 -02 02 41.94715
 2018-Nov-07 07:23     13 13 19.296247 -02 02 42.48331
 2018-Nov-07 07:24     13 13 19.336676 -02 02 43.01948
 2018-Nov-07 07:25     13 13 19.377069 -02 02 43.55568
 2018-Nov-07 07:26     13 13 19.417426 -02 02 44.09190
 2018-Nov-07 07:27     13 13 19.457745 -02 02 44.62814
 2018-Nov-07 07:28     13 13 19.498028 -02 02 45.16439
 2018-Nov-07 07:29     13 13 19.538274 -02 02 45.70066
